{"type": "FeatureCollection", "features": [ {"type": "Feature", "properties": {"norad_id": 40118, "name": "GAOFEN-2", "group": "resource", "lat": -6.314545796466242, "lon": -120.05901586515697, "alt_km": 633.6350198097298, "timestamp": "2025-12-27T15:27:10.800444+00:00", "meta": {"OBJECT_NAME": "GAOFEN-2", "OBJECT_ID": "2014-049A", "EPOCH": "2025-12-27T08:07:39.381600", "MEAN_MOTION": 14.80634742, "ECCENTRICITY": 0.00087335, "INCLINATION": 98.0362, "RA_OF_ASC_NODE": 60.5311, "ARG_OF_PERICENTER": 72.9478, "MEAN_ANOMALY": 287.269, "EPHEMERIS_TYPE": 0, "CLASSIFICATION_TYPE": "U", "NORAD_CAT_ID": 40118, "ELEMENT_SET_NO": 999, "REV_AT_EPOCH": 61380, "BSTAR": 0.00018263309, "MEAN_MOTION_DOT": 1.35e-05, "MEAN_MOTION_DDOT": 0}, "tle": {"line1": "1 40118U 14049A   25361.33865025  .00001350  00000+0  18263-3 0  9992", "line2": "2 40118  98.0362  60.5311 0008733  72.9478 287.2690 14.80634742613809"}}, "geometry": {"type": "Point", "coordinates": [-120.05901586515697, -6.314545796466242]}}, {"type": "Feature", "properties": {"norad_id": 40143, "name": "YAOGAN-21", "group": "resource", "lat": -60.087745729412056, "lon": 56.954584440905265, "alt_km": 498.01643114247236, "timestamp": "2025-12-27T15:27:10.800460+00:00", "meta": {"OBJECT_NAME": "YAOGAN-21", "OBJECT_ID": "2014-053A", "EPOCH": "2025-12-27T06:15:48.329856", "MEAN_MOTION": 15.23824559, "ECCENTRICITY": 0.00082841, "INCLINATION": 97.1739, "RA_OF_ASC_NODE": 43.9419, "ARG_OF_PERICENTER": 353.0294, "MEAN_ANOMALY": 7.0827, "EPHEMERIS_TYPE": 0, "CLASSIFICATION_TYPE": "U", "NORAD_CAT_ID": 40143, "ELEMENT_SET_NO": 999, "REV_AT_EPOCH": 62875, "BSTAR": 0.00029420917, "MEAN_MOTION_DOT": 7.029e-05, "MEAN_MOTION_DDOT": 0}, "tle": {"line1": "1 40143U 14053A   25361.26097604  .00007029  00000+0  29421-3 0  9994", "line2": "2 40143  97.1739  43.9419 0008284 353.0294   7.0827 15.23824559628754"}}, "geometry": {"type": "Point", "coordinates": [56.954584440905265, -60.087745729412056]}}, {"type": "Feature", "properties": {"norad_id": 40275, "name": "YAOGAN-22", "group": "resource", "lat": 38.222712030441116, "lon": -26.127250425667153, "alt_km": 1197.3771560071973, "timestamp": "2025-12-27T15:27:10.800471+00:00", "meta": {"OBJECT_NAME": "YAOGAN-22", "OBJECT_ID": "2014-063A", "EPOCH": "2025-12-27T05:36:45.157536", "MEAN_MOTION": 13.15523321, "ECCENTRICITY": 0.00061264, "INCLINATION": 100.7431, "RA_OF_ASC_NODE": 144.8585, "ARG_OF_PERICENTER": 213.6133, "MEAN_ANOMALY": 146.459, "EPHEMERIS_TYPE": 0, "CLASSIFICATION_TYPE": "U", "NORAD_CAT_ID": 40275, "ELEMENT_SET_NO": 999, "REV_AT_EPOCH": 53720, "BSTAR": 7.626334e-05, "MEAN_MOTION_DOT": -1.8e-07, "MEAN_MOTION_DDOT": 0}, "tle": {"line1": "1 40275U 14063A   25361.23385599 -.00000018  00000+0  76263-4 0  9990", "line2": "2 40275 100.7431 144.8585 0006126 213.6133 146.4590 13.15523321537207"}}, "geometry": {"type": "Point", "coordinates": [-26.127250425667153, 38.222712030441116]}}, {"type": "Feature", "properties": {"norad_id": 40298, "name": "ASNARO", "group": "resource", "lat": 51.81210806758984, "lon": -93.31124133071049, "alt_km": 498.8891142577286, "timestamp": "2025-12-27T15:27:10.800487+00:00", "meta": {"OBJECT_NAME": "ASNARO", "OBJECT_ID": "2014-070A", "EPOCH": "2025-12-27T06:59:36.909024", "MEAN_MOTION": 15.19805056, "ECCENTRICITY": 0.00056625, "INCLINATION": 97.363, "RA_OF_ASC_NODE": 76.8827, "ARG_OF_PERICENTER": 83.3567, "MEAN_ANOMALY": 276.8313, "EPHEMERIS_TYPE": 0, "CLASSIFICATION_TYPE": "U", "NORAD_CAT_ID": 40298, "ELEMENT_SET_NO": 999, "REV_AT_EPOCH": 61790, "BSTAR": 0.00086271939, "MEAN_MOTION_DOT": 0.00018449, "MEAN_MOTION_DDOT": 0}, "tle": {"line1": "1 40298U 14070A   25361.29139941  .00018449  00000+0  86272-3 0  9993", "line2": "2 40298  97.3630  76.8827 0005662  83.3567 276.8313 15.19805056617905"}}, "geometry": {"type": "Point", "coordinates": [-93.31124133071049, 51.81210806758984]}}, {"type": "Feature", "properties": {"norad_id": 40310, "name": "YAOGAN-24", "group": "resource", "lat": -66.1025595634903, "lon": 151.62255564152719, "alt_km": 658.6482002860112, "timestamp": "2025-12-27T15:27:10.800499+00:00", "meta": {"OBJECT_NAME": "YAOGAN-24", "OBJECT_ID": "2014-072A", "EPOCH": "2025-12-27T07:37:29.229888", "MEAN_MOTION": 14.76205398, "ECCENTRICITY": 0.00152023, "INCLINATION": 98.1232, "RA_OF_ASC_NODE": 132.4894, "ARG_OF_PERICENTER": 94.6056, "MEAN_ANOMALY": 265.689, "EPHEMERIS_TYPE": 0, "CLASSIFICATION_TYPE": "U", "NORAD_CAT_ID": 40310, "ELEMENT_SET_NO": 999, "REV_AT_EPOCH": 59836, "BSTAR": 0.0001031193, "MEAN_MOTION_DOT": 6.62e-06, "MEAN_MOTION_DDOT": 0}, "tle": {"line1": "1 40310U 14072A   25361.31769942  .00000662  00000+0  10312-3 0  9993", "line2": "2 40310  98.1232 132.4894 0015202  94.6056 265.6890 14.76205398598368"}}, "geometry": {"type": "Point", "coordinates": [151.62255564152719, -66.1025595634903]}}, {"type": "Feature", "properties": {"norad_id": 40336, "name": "CBERS 4", "group": "resource", "lat": 13.919536990616146, "lon": 57.06851585056422, "alt_km": 774.0967834697303, "timestamp": "2025-12-27T15:27:10.800510+00:00", "meta": {"OBJECT_NAME": "CBERS 4", "OBJECT_ID": "2014-079A", "EPOCH": "2025-12-27T07:01:24.564288", "MEAN_MOTION": 14.35523266, "ECCENTRICITY": 0.00018925, "INCLINATION": 98.3285, "RA_OF_ASC_NODE": 58.81, "ARG_OF_PERICENTER": 96.7003, "MEAN_ANOMALY": 263.4398, "EPHEMERIS_TYPE": 0, "CLASSIFICATION_TYPE": "U", "NORAD_CAT_ID": 40336, "ELEMENT_SET_NO": 999, "REV_AT_EPOCH": 57929, "BSTAR": 5.3400433e-05, "MEAN_MOTION_DOT": 1.12e-06, "MEAN_MOTION_DDOT": 0}, "tle": {"line1": "1 40336U 14079A   25361.29264542  .00000112  00000+0  53400-4 0  9997", "line2": "2 40336  98.3285  58.8100 0001892  96.7003 263.4398 14.35523266579294"}}, "geometry": {"type": "Point", "coordinates": [57.06851585056422, 13.919536990616146]}}, {"type": "Feature", "properties": {"norad_id": 40362, "name": "YAOGAN-26", "group": "resource", "lat": 38.76329375555344, "lon": -172.49337911862187, "alt_km": 446.3502416837182, "timestamp": "2025-12-27T15:27:10.800520+00:00", "meta": {"OBJECT_NAME": "YAOGAN-26", "OBJECT_ID": "2014-088A", "EPOCH": "2025-12-27T07:02:43.620288", "MEAN_MOTION": 15.39829417, "ECCENTRICITY": 0.00040476, "INCLINATION": 97.0648, "RA_OF_ASC_NODE": 1.4532, "ARG_OF_PERICENTER": 341.2339, "MEAN_ANOMALY": 18.8758, "EPHEMERIS_TYPE": 0, "CLASSIFICATION_TYPE": "U", "NORAD_CAT_ID": 40362, "ELEMENT_SET_NO": 999, "REV_AT_EPOCH": 61118, "BSTAR": 0.0006838671, "MEAN_MOTION_DOT": 0.00027121, "MEAN_MOTION_DDOT": 0}, "tle": {"line1": "1 40362U 14088A   25361.29356042  .00027121  00000+0  68387-3 0  9991", "line2": "2 40362  97.0648   1.4532 0004047 341.2339  18.8758 15.39829417611189"}}, "geometry": {"type": "Point", "coordinates": [-172.49337911862187, 38.76329375555344]}}, {"type": "Feature", "properties": {"norad_id": 40376, "name": "SMAP", "group": "resource", "lat": -81.65632726708795, "lon": 109.10036470289658, "alt_km": 690.5582104472669, "timestamp": "2025-12-27T15:27:10.800530+00:00", "meta": {"OBJECT_NAME": "SMAP", "OBJECT_ID": "2015-003A", "EPOCH": "2025-12-27T04:23:06.499104", "MEAN_MOTION": 14.63363282, "ECCENTRICITY": 0.00012426, "INCLINATION": 98.1291, "RA_OF_ASC_NODE": 5.6984, "ARG_OF_PERICENTER": 92.3802, "MEAN_ANOMALY": 267.7542, "EPHEMERIS_TYPE": 0, "CLASSIFICATION_TYPE": "U", "NORAD_CAT_ID": 40376, "ELEMENT_SET_NO": 999, "REV_AT_EPOCH": 58246, "BSTAR": 0.0001390557, "MEAN_MOTION_DOT": 6.71e-06, "MEAN_MOTION_DDOT": 0}, "tle": {"line1": "1 40376U 15003A   25361.18271411  .00000671  00000+0  13906-3 0  9996", "line2": "2 40376  98.1291   5.6984 0001242  92.3802 267.7542 14.63363282582463"}}, "geometry": {"type": "Point", "coordinates": [109.10036470289658, -81.65632726708795]}}, {"type": "Feature", "properties": {"norad_id": 40536, "name": "KOMPSAT-3A", "group": "resource", "lat": -28.391530695363915, "lon": -18.996367593997498, "alt_km": 440.8998380037574, "timestamp": "2025-12-27T15:27:10.800541+00:00", "meta": {"OBJECT_NAME": "KOMPSAT-3A", "OBJECT_ID": "2015-014A", "EPOCH": "2025-12-27T06:14:50.902368", "MEAN_MOTION": 15.44491497, "ECCENTRICITY": 0.00056705, "INCLINATION": 97.6807, "RA_OF_ASC_NODE": 336.4152, "ARG_OF_PERICENTER": 96.3132, "MEAN_ANOMALY": 263.8761, "EPHEMERIS_TYPE": 0, "CLASSIFICATION_TYPE": "U", "NORAD_CAT_ID": 40536, "ELEMENT_SET_NO": 999, "REV_AT_EPOCH": 59519, "BSTAR": 0.0004513033, "MEAN_MOTION_DOT": 0.0002086, "MEAN_MOTION_DDOT": 0}, "tle": {"line1": "1 40536U 15014A   25361.26031137  .00020860  00000+0  45130-3 0  9990", "line2": "2 40536  97.6807 336.4152 0005670  96.3132 263.8761 15.44491497595193"}}, "geometry": {"type": "Point", "coordinates": [-18.996367593997498, -28.391530695363915]}}, {"type": "Feature", "properties": {"norad_id": 40697, "name": "SENTINEL-2A", "group": "resource", "lat": -13.290413871923942, "lon": -108.0741059714248, "alt_km": 793.7046733612588, "timestamp": "2025-12-27T15:27:10.800551+00:00", "meta": {"OBJECT_NAME": "SENTINEL-2A", "OBJECT_ID": "2015-028A", "EPOCH": "2025-12-27T07:50:20.609952", "MEAN_MOTION": 14.30811758, "ECCENTRICITY": 0.00010498, "INCLINATION": 98.5723, "RA_OF_ASC_NODE": 73.655, "ARG_OF_PERICENTER": 89.2258, "MEAN_ANOMALY": 270.9045, "EPHEMERIS_TYPE": 0, "CLASSIFICATION_TYPE": "U", "NORAD_CAT_ID": 40697, "ELEMENT_SET_NO": 999, "REV_AT_EPOCH": 54915, "BSTAR": 0.00011398356, "MEAN_MOTION_DOT": 2.55e-06, "MEAN_MOTION_DDOT": 0}, "tle": {"line1": "1 40697U 15028A   25361.32662743  .00000255  00000+0  11398-3 0  9998", "line2": "2 40697  98.5723  73.6550 0001049  89.2258 270.9045 14.30811758549155"}}, "geometry": {"type": "Point", "coordinates": [-108.0741059714248, -13.290413871923942]}}]}